{
  "type": "FeatureCollection",
  "features": [
    {
      "type": "Feature",
      "properties": {
        "norad_id": 65731,
        "name": "1998-067XK",
        "group": "stations",
        "lat": -48.14321547310362,
        "lon": 65.09729303290669,
        "alt_km": 371.4755471160015,
        "timestamp": "2025-12-14T16:47:39.460285+00:00",
        "meta_object_name": "1998-067XK",
        "meta_object_id": "1998-067XK",
        "meta_epoch": "2025-12-13T16:35:48.207552",
        "meta_mean_motion": 15.65971562,
        "meta_eccentricity": 0.0005022,
        "meta_inclination": 51.6277,
        "meta_ra_of_asc_node": 132.4028,
        "meta_arg_of_pericenter": 252.6654,
        "meta_mean_anomaly": 107.3793,
        "meta_ephemeris_type": 0,
        "meta_classification_type": "U",
        "meta_norad_cat_id": 65731,
        "meta_element_set_no": 999,
        "meta_rev_at_epoch": 1329,
        "meta_bstar": 0.0009945398,
        "meta_mean_motion_dot": 0.00104411,
        "meta_mean_motion_ddot": 0,
        "tle_line1": "1 65731U 98067XK  25347.69153018  .00104411  00000+0  99454-3 0  9990",
        "tle_line2": "2 65731  51.6277 132.4028 0005022 252.6654 107.3793 15.65971562 13293"
      },
      "geometry": {
        "type": "Point",
        "coordinates": [
          65.09729303290669,
          -48.14321547310362
        ]
      }
    },
    {
      "type": "Feature",
      "properties": {
        "norad_id": 65732,
        "name": "RSP-03",
        "group": "stations",
        "lat": -50.19455539832084,
        "lon": 54.55585438098249,
        "alt_km": 362.1095166828982,
        "timestamp": "2025-12-14T16:47:39.460299+00:00",
        "meta_object_name": "RSP-03",
        "meta_object_id": "1998-067XL",
        "meta_epoch": "2025-12-13T16:40:16.814784",
        "meta_mean_motion": 15.68925685,
        "meta_eccentricity": 0.00057642,
        "meta_inclination": 51.6251,
        "meta_ra_of_asc_node": 131.6633,
        "meta_arg_of_pericenter": 257.9098,
        "meta_mean_anomaly": 102.1253,
        "meta_ephemeris_type": 0,
        "meta_classification_type": "U",
        "meta_norad_cat_id": 65732,
        "meta_element_set_no": 999,
        "meta_rev_at_epoch": 1331,
        "meta_bstar": 0.0011602018,
        "meta_mean_motion_dot": 0.00138092,
        "meta_mean_motion_ddot": 0,
        "tle_line1": "1 65732U 98067XL  25347.69463906  .00138092  00000+0  11602-2 0  9991",
        "tle_line2": "2 65732  51.6251 131.6633 0005764 257.9098 102.1253 15.68925685 13317"
      },
      "geometry": {
        "type": "Point",
        "coordinates": [
          54.55585438098249,
          -50.19455539832084
        ]
      }
    },
    {
      "type": "Feature",
      "properties": {
        "norad_id": 65733,
        "name": "GHS-01",
        "group": "stations",
        "lat": -44.903364089636206,
        "lon": -2.729017956605316,
        "alt_km": 343.30698846262476,
        "timestamp": "2025-12-14T16:47:39.460309+00:00",
        "meta_object_name": "GHS-01",
        "meta_object_id": "1998-067XM",
        "meta_epoch": "2025-12-13T15:24:20.714688",
        "meta_mean_motion": 15.75321114,
        "meta_eccentricity": 0.00073966,
        "meta_inclination": 51.6271,
        "meta_ra_of_asc_node": 130.5592,
        "meta_arg_of_pericenter": 286.1274,
        "meta_mean_anomaly": 73.8911,
        "meta_ephemeris_type": 0,
        "meta_classification_type": "U",
        "meta_norad_cat_id": 65733,
        "meta_element_set_no": 999,
        "meta_rev_at_epoch": 1332,
        "meta_bstar": 0.0014639187,
        "meta_mean_motion_dot": 0.0023151,
        "meta_mean_motion_ddot": 0,
        "tle_line1": "1 65733U 98067XM  25347.64190642  .00231510  00000+0  14639-2 0  9993",
        "tle_line2": "2 65733  51.6271 130.5592 0007396 286.1274  73.8911 15.75321114 13326"
      },
      "geometry": {
        "type": "Point",
        "coordinates": [
          -2.729017956605316,
          -44.903364089636206
        ]
      }
    },
    {
      "type": "Feature",
      "properties": {
        "norad_id": 65941,
        "name": "YOTSUBA-KULOVER",
        "group": "stations",
        "lat": 3.339937799279246,
        "lon": 132.77007452053954,
        "alt_km": 388.83365530139145,
        "timestamp": "2025-12-14T16:47:39.460320+00:00",
        "meta_object_name": "YOTSUBA-KULOVER",
        "meta_object_id": "1998-067XN",
        "meta_epoch": "2025-12-12T17:06:14.736384",
        "meta_mean_motion": 15.59447843,
        "meta_eccentricity": 0.00014047,
        "meta_inclination": 51.6283,
        "meta_ra_of_asc_node": 140.1142,
        "meta_arg_of_pericenter": 246.8378,
        "meta_mean_anomaly": 113.2466,
        "meta_ephemeris_type": 0,
        "meta_classification_type": "U",
        "meta_norad_cat_id": 65941,
        "meta_element_set_no": 999,
        "meta_rev_at_epoch": 985,
        "meta_bstar": 0.0010939393,
        "meta_mean_motion_dot": 0.0008876,
        "meta_mean_motion_ddot": 0,
        "tle_line1": "1 65941U 98067XN  25346.71267056  .00088760  00000+0  10939-2 0  9991",
        "tle_line2": "2 65941  51.6283 140.1142 0001404 246.8378 113.2466 15.59447843  9857"
      },
      "geometry": {
        "type": "Point",
        "coordinates": [
          132.77007452053954,
          3.339937799279246
        ]
      }
    },
    {
      "type": "Feature",
      "properties": {
        "norad_id": 65942,
        "name": "BOTAN",
        "group": "stations",
        "lat": -1.8339926090366696,
        "lon": 127.9318224041849,
        "alt_km": 379.5336334997719,
        "timestamp": "2025-12-14T16:47:39.460330+00:00",
        "meta_object_name": "BOTAN",
        "meta_object_id": "1998-067XP",
        "meta_epoch": "2025-12-13T19:19:30.936288",
        "meta_mean_motion": 15.63168137,
        "meta_eccentricity": 0.00029855,
        "meta_inclination": 51.6273,
        "meta_ra_of_asc_node": 133.9097,
        "meta_arg_of_pericenter": 245.5023,
        "meta_mean_anomaly": 114.566,
        "meta_ephemeris_type": 0,
        "meta_classification_type": "U",
        "meta_norad_cat_id": 65942,
        "meta_element_set_no": 999,
        "meta_rev_at_epoch": 1003,
        "meta_bstar": 0.0012359991,
        "meta_mean_motion_dot": 0.00116317,
        "meta_mean_motion_ddot": 0,
        "tle_line1": "1 65942U 98067XP  25347.80521917  .00116317  00000+0  12360-2 0  9992",
        "tle_line2": "2 65942  51.6273 133.9097 0002985 245.5023 114.5660 15.63168137 10037"
      },
      "geometry": {
        "type": "Point",
        "coordinates": [
          127.9318224041849,
          -1.8339926090366696
        ]
      }
    },
    {
      "type": "Feature",
      "properties": {
        "norad_id": 65943,
        "name": "E-KAGAKU-1",
        "group": "stations",
        "lat": 2.994261970567581,
        "lon": 132.5021766503687,
        "alt_km": 389.8276793767054,
        "timestamp": "2025-12-14T16:47:39.460340+00:00",
        "meta_object_name": "E-KAGAKU-1",
        "meta_object_id": "1998-067XQ",
        "meta_epoch": "2025-12-13T16:10:25.766976",
        "meta_mean_motion": 15.59600277,
        "meta_eccentricity": 0.0001883,
        "meta_inclination": 51.6291,
        "meta_ra_of_asc_node": 135.2869,
        "meta_arg_of_pericenter": 210.5697,
        "meta_mean_anomaly": 149.5187,
        "meta_ephemeris_type": 0,
        "meta_classification_type": "U",
        "meta_norad_cat_id": 65943,
        "meta_element_set_no": 999,
        "meta_rev_at_epoch": 1000,
        "meta_bstar": 0.00085555158,
        "meta_mean_motion_dot": 0.00069544,
        "meta_mean_motion_ddot": 0,
        "tle_line1": "1 65943U 98067XQ  25347.67390934  .00069544  00000+0  85555-3 0  9997",
        "tle_line2": "2 65943  51.6291 135.2869 0001883 210.5697 149.5187 15.59600277 10005"
      },
      "geometry": {
        "type": "Point",
        "coordinates": [
          132.5021766503687,
          2.994261970567581
        ]
      }
    },
    {
      "type": "Feature",
      "properties": {
        "norad_id": 66052,
        "name": "HRC MONOBLOCK CAMERA",
        "group": "stations",
        "lat": -36.942427566461014,
        "lon": 95.15997769643575,
        "alt_km": 409.2068856367805,
        "timestamp": "2025-12-14T16:47:39.460350+00:00",
        "meta_object_name": "HRC MONOBLOCK CAMERA",
        "meta_object_id": "1998-067XR",
        "meta_epoch": "2025-12-13T22:29:30.916896",
        "meta_mean_motion": 15.54245185,
        "meta_eccentricity": 0.00031513,
        "meta_inclination": 51.6291,
        "meta_ra_of_asc_node": 135.5359,
        "meta_arg_of_pericenter": 189.7687,
        "meta_mean_anomaly": 170.3243,
        "meta_ephemeris_type": 0,
        "meta_classification_type": "U",
        "meta_norad_cat_id": 66052,
        "meta_element_set_no": 999,
        "meta_rev_at_epoch": 902,
        "meta_bstar": 0.00061222151,
        "meta_mean_motion_dot": 0.00040432,
        "meta_mean_motion_ddot": 0,
        "tle_line1": "1 66052U 98067XR  25347.93716339  .00040432  00000+0  61222-3 0  9999",
        "tle_line2": "2 66052  51.6291 135.5359 0003151 189.7687 170.3243 15.54245185  9023"
      },
      "geometry": {
        "type": "Point",
        "coordinates": [
          95.15997769643575,
          -36.942427566461014
        ]
      }
    }
  ]
}